ORBCOMM FM103           
1 40091U 14040F   24318.71452313  .00002068  00000+0  48814-3 0  9990
2 40091  47.0054 314.8803 0002233 350.7335   9.3509 14.57426418549724
ORBCOMM FM114           
1 41179U 15081A   24318.46972571  .00002790  00000+0  64523-3 0  9996
2 41179  47.0015 225.2222 0001852  81.9654 278.1441 14.57459201472993
ORBCOMM FM119           
1 41180U 15081B   24318.58349926  .00001940  00000+0  46047-3 0  9990
2 41180  46.9982 133.9117 0001403 183.5259 176.5617 14.57403084474262
ORBCOMM FM105           
1 41181U 15081C   24318.56822233  .00001150  00000+0  37277-3 0  9994
2 41181  47.0003 118.2334 0001038  77.6344 282.4652 14.44830951469564
ORBCOMM FM110           
1 41182U 15081D   24318.44602289  .00002833  00000+0  65419-3 0  9997
2 41182  47.0005 224.7162 0001687 234.9008 125.1719 14.57474591472866
ORBCOMM FM118           
1 41183U 15081E   24318.15012882  .00002964  00000+0  68366-3 0  9999
2 41183  47.0031 226.4671 0002165 231.1651 128.9041 14.57413520472926
ORBCOMM FM112           
1 41184U 15081F   24318.49234468  .00002794  00000+0  64640-3 0  9995
2 41184  46.9962 133.5329 0001414 157.0409 203.0540 14.57435967474198
ORBCOMM FM113           
1 41185U 15081G   24318.74403084  .00002737  00000+0  63403-3 0  9999
2 41185  46.9982 132.6446 0001580 183.9356 176.1517 14.57423340474280
