<?xml version="1.0" encoding="UTF-8"?>
<ndm xmlns:xsi="http://www.w3.org/2001/XMLSchema-instance" xsi:noNamespaceSchemaLocation="https://sanaregistry.org/r/ndmxml_unqualified/ndmxml-2.0.0-master-2.0.xsd">
<omm id="CCSDS_OMM_VERS" version="2.0">
<header><CREATION_DATE/><ORIGINATOR/></header><body><segment><metadata><OBJECT_NAME>ORBCOMM FM103</OBJECT_NAME><OBJECT_ID>2014-040F</OBJECT_ID><CENTER_NAME>EARTH</CENTER_NAME><REF_FRAME>TEME</REF_FRAME><TIME_SYSTEM>UTC</TIME_SYSTEM><MEAN_ELEMENT_THEORY>SGP4</MEAN_ELEMENT_THEORY></metadata><data><meanElements><EPOCH>2024-11-13T17:08:54.798432</EPOCH><MEAN_MOTION>14.57426418</MEAN_MOTION><ECCENTRICITY>.0002233</ECCENTRICITY><INCLINATION>47.0054</INCLINATION><RA_OF_ASC_NODE>314.8803</RA_OF_ASC_NODE><ARG_OF_PERICENTER>350.7335</ARG_OF_PERICENTER><MEAN_ANOMALY>9.3509</MEAN_ANOMALY></meanElements><tleParameters><EPHEMERIS_TYPE>0</EPHEMERIS_TYPE><CLASSIFICATION_TYPE>U</CLASSIFICATION_TYPE><NORAD_CAT_ID>40091</NORAD_CAT_ID><ELEMENT_SET_NO>999</ELEMENT_SET_NO><REV_AT_EPOCH>54972</REV_AT_EPOCH><BSTAR>.48814E-3</BSTAR><MEAN_MOTION_DOT>.2068E-4</MEAN_MOTION_DOT><MEAN_MOTION_DDOT>0</MEAN_MOTION_DDOT></tleParameters></data></segment></body></omm>
<omm id="CCSDS_OMM_VERS" version="2.0">
<header><CREATION_DATE/><ORIGINATOR/></header><body><segment><metadata><OBJECT_NAME>ORBCOMM FM114</OBJECT_NAME><OBJECT_ID>2015-081A</OBJECT_ID><CENTER_NAME>EARTH</CENTER_NAME><REF_FRAME>TEME</REF_FRAME><TIME_SYSTEM>UTC</TIME_SYSTEM><MEAN_ELEMENT_THEORY>SGP4</MEAN_ELEMENT_THEORY></metadata><data><meanElements><EPOCH>2024-11-13T11:16:24.301344</EPOCH><MEAN_MOTION>14.57459201</MEAN_MOTION><ECCENTRICITY>.0001852</ECCENTRICITY><INCLINATION>47.0015</INCLINATION><RA_OF_ASC_NODE>225.2222</RA_OF_ASC_NODE><ARG_OF_PERICENTER>81.9654</ARG_OF_PERICENTER><MEAN_ANOMALY>278.1441</MEAN_ANOMALY></meanElements><tleParameters><EPHEMERIS_TYPE>0</EPHEMERIS_TYPE><CLASSIFICATION_TYPE>U</CLASSIFICATION_TYPE><NORAD_CAT_ID>41179</NORAD_CAT_ID><ELEMENT_SET_NO>999</ELEMENT_SET_NO><REV_AT_EPOCH>47299</REV_AT_EPOCH><BSTAR>.64523E-3</BSTAR><MEAN_MOTION_DOT>.279E-4</MEAN_MOTION_DOT><MEAN_MOTION_DDOT>0</MEAN_MOTION_DDOT></tleParameters></data></segment></body></omm>
<omm id="CCSDS_OMM_VERS" version="2.0">
<header><CREATION_DATE/><ORIGINATOR/></header><body><segment><metadata><OBJECT_NAME>ORBCOMM FM119</OBJECT_NAME><OBJECT_ID>2015-081B</OBJECT_ID><CENTER_NAME>EARTH</CENTER_NAME><REF_FRAME>TEME</REF_FRAME><TIME_SYSTEM>UTC</TIME_SYSTEM><MEAN_ELEMENT_THEORY>SGP4</MEAN_ELEMENT_THEORY></metadata><data><meanElements><EPOCH>2024-11-13T14:00:14.336064</EPOCH><MEAN_MOTION>14.57403084</MEAN_MOTION><ECCENTRICITY>.0001403</ECCENTRICITY><INCLINATION>46.9982</INCLINATION><RA_OF_ASC_NODE>133.9117</RA_OF_ASC_NODE><ARG_OF_PERICENTER>183.5259</ARG_OF_PERICENTER><MEAN_ANOMALY>176.5617</MEAN_ANOMALY></meanElements><tleParameters><EPHEMERIS_TYPE>0</EPHEMERIS_TYPE><CLASSIFICATION_TYPE>U</CLASSIFICATION_TYPE><NORAD_CAT_ID>41180</NORAD_CAT_ID><ELEMENT_SET_NO>999</ELEMENT_SET_NO><REV_AT_EPOCH>47426</REV_AT_EPOCH><BSTAR>.46047E-3</BSTAR><MEAN_MOTION_DOT>.194E-4</MEAN_MOTION_DOT><MEAN_MOTION_DDOT>0</MEAN_MOTION_DDOT></tleParameters></data></segment></body></omm>
<omm id="CCSDS_OMM_VERS" version="2.0">
<header><CREATION_DATE/><ORIGINATOR/></header><body><segment><metadata><OBJECT_NAME>ORBCOMM FM105</OBJECT_NAME><OBJECT_ID>2015-081C</OBJECT_ID><CENTER_NAME>EARTH</CENTER_NAME><REF_FRAME>TEME</REF_FRAME><TIME_SYSTEM>UTC</TIME_SYSTEM><MEAN_ELEMENT_THEORY>SGP4</MEAN_ELEMENT_THEORY></metadata><data><meanElements><EPOCH>2024-11-13T13:38:14.409312</EPOCH><MEAN_MOTION>14.44830951</MEAN_MOTION><ECCENTRICITY>.0001038</ECCENTRICITY><INCLINATION>47.0003</INCLINATION><RA_OF_ASC_NODE>118.2334</RA_OF_ASC_NODE><ARG_OF_PERICENTER>77.6344</ARG_OF_PERICENTER><MEAN_ANOMALY>282.4652</MEAN_ANOMALY></meanElements><tleParameters><EPHEMERIS_TYPE>0</EPHEMERIS_TYPE><CLASSIFICATION_TYPE>U</CLASSIFICATION_TYPE><NORAD_CAT_ID>41181</NORAD_CAT_ID><ELEMENT_SET_NO>999</ELEMENT_SET_NO><REV_AT_EPOCH>46956</REV_AT_EPOCH><BSTAR>.37277E-3</BSTAR><MEAN_MOTION_DOT>.115E-4</MEAN_MOTION_DOT><MEAN_MOTION_DDOT>0</MEAN_MOTION_DDOT></tleParameters></data></segment></body></omm>
<omm id="CCSDS_OMM_VERS" version="2.0">
<header><CREATION_DATE/><ORIGINATOR/></header><body><segment><metadata><OBJECT_NAME>ORBCOMM FM110</OBJECT_NAME><OBJECT_ID>2015-081D</OBJECT_ID><CENTER_NAME>EARTH</CENTER_NAME><REF_FRAME>TEME</REF_FRAME><TIME_SYSTEM>UTC</TIME_SYSTEM><MEAN_ELEMENT_THEORY>SGP4</MEAN_ELEMENT_THEORY></metadata><data><meanElements><EPOCH>2024-11-13T10:42:16.377696</EPOCH><MEAN_MOTION>14.57474591</MEAN_MOTION><ECCENTRICITY>.0001687</ECCENTRICITY><INCLINATION>47.0005</INCLINATION><RA_OF_ASC_NODE>224.7162</RA_OF_ASC_NODE><ARG_OF_PERICENTER>234.9008</ARG_OF_PERICENTER><MEAN_ANOMALY>125.1719</MEAN_ANOMALY></meanElements><tleParameters><EPHEMERIS_TYPE>0</EPHEMERIS_TYPE><CLASSIFICATION_TYPE>U</CLASSIFICATION_TYPE><NORAD_CAT_ID>41182</NORAD_CAT_ID><ELEMENT_SET_NO>999</ELEMENT_SET_NO><REV_AT_EPOCH>47286</REV_AT_EPOCH><BSTAR>.65419E-3</BSTAR><MEAN_MOTION_DOT>.2833E-4</MEAN_MOTION_DOT><MEAN_MOTION_DDOT>0</MEAN_MOTION_DDOT></tleParameters></data></segment></body></omm>
<omm id="CCSDS_OMM_VERS" version="2.0">
<header><CREATION_DATE/><ORIGINATOR/></header><body><segment><metadata><OBJECT_NAME>ORBCOMM FM118</OBJECT_NAME><OBJECT_ID>2015-081E</OBJECT_ID><CENTER_NAME>EARTH</CENTER_NAME><REF_FRAME>TEME</REF_FRAME><TIME_SYSTEM>UTC</TIME_SYSTEM><MEAN_ELEMENT_THEORY>SGP4</MEAN_ELEMENT_THEORY></metadata><data><meanElements><EPOCH>2024-11-13T03:36:11.130048</EPOCH><MEAN_MOTION>14.57413520</MEAN_MOTION><ECCENTRICITY>.0002165</ECCENTRICITY><INCLINATION>47.0031</INCLINATION><RA_OF_ASC_NODE>226.4671</RA_OF_ASC_NODE><ARG_OF_PERICENTER>231.1651</ARG_OF_PERICENTER><MEAN_ANOMALY>128.9041</MEAN_ANOMALY></meanElements><tleParameters><EPHEMERIS_TYPE>0</EPHEMERIS_TYPE><CLASSIFICATION_TYPE>U</CLASSIFICATION_TYPE><NORAD_CAT_ID>41183</NORAD_CAT_ID><ELEMENT_SET_NO>999</ELEMENT_SET_NO><REV_AT_EPOCH>47292</REV_AT_EPOCH><BSTAR>.68366E-3</BSTAR><MEAN_MOTION_DOT>.2964E-4</MEAN_MOTION_DOT><MEAN_MOTION_DDOT>0</MEAN_MOTION_DDOT></tleParameters></data></segment></body></omm>
<omm id="CCSDS_OMM_VERS" version="2.0">
<header><CREATION_DATE/><ORIGINATOR/></header><body><segment><metadata><OBJECT_NAME>ORBCOMM FM112</OBJECT_NAME><OBJECT_ID>2015-081F</OBJECT_ID><CENTER_NAME>EARTH</CENTER_NAME><REF_FRAME>TEME</REF_FRAME><TIME_SYSTEM>UTC</TIME_SYSTEM><MEAN_ELEMENT_THEORY>SGP4</MEAN_ELEMENT_THEORY></metadata><data><meanElements><EPOCH>2024-11-13T11:48:58.580352</EPOCH><MEAN_MOTION>14.57435967</MEAN_MOTION><ECCENTRICITY>.0001414</ECCENTRICITY><INCLINATION>46.9962</INCLINATION><RA_OF_ASC_NODE>133.5329</RA_OF_ASC_NODE><ARG_OF_PERICENTER>157.0409</ARG_OF_PERICENTER><MEAN_ANOMALY>203.0540</MEAN_ANOMALY></meanElements><tleParameters><EPHEMERIS_TYPE>0</EPHEMERIS_TYPE><CLASSIFICATION_TYPE>U</CLASSIFICATION_TYPE><NORAD_CAT_ID>41184</NORAD_CAT_ID><ELEMENT_SET_NO>999</ELEMENT_SET_NO><REV_AT_EPOCH>47419</REV_AT_EPOCH><BSTAR>.6464E-3</BSTAR><MEAN_MOTION_DOT>.2794E-4</MEAN_MOTION_DOT><MEAN_MOTION_DDOT>0</MEAN_MOTION_DDOT></tleParameters></data></segment></body></omm>
<omm id="CCSDS_OMM_VERS" version="2.0">
<header><CREATION_DATE/><ORIGINATOR/></header><body><segment><metadata><OBJECT_NAME>ORBCOMM FM113</OBJECT_NAME><OBJECT_ID>2015-081G</OBJECT_ID><CENTER_NAME>EARTH</CENTER_NAME><REF_FRAME>TEME</REF_FRAME><TIME_SYSTEM>UTC</TIME_SYSTEM><MEAN_ELEMENT_THEORY>SGP4</MEAN_ELEMENT_THEORY></metadata><data><meanElements><EPOCH>2024-11-13T17:51:24.264576</EPOCH><MEAN_MOTION>14.57423340</MEAN_MOTION><ECCENTRICITY>.000158</ECCENTRICITY><INCLINATION>46.9982</INCLINATION><RA_OF_ASC_NODE>132.6446</RA_OF_ASC_NODE><ARG_OF_PERICENTER>183.9356</ARG_OF_PERICENTER><MEAN_ANOMALY>176.1517</MEAN_ANOMALY></meanElements><tleParameters><EPHEMERIS_TYPE>0</EPHEMERIS_TYPE><CLASSIFICATION_TYPE>U</CLASSIFICATION_TYPE><NORAD_CAT_ID>41185</NORAD_CAT_ID><ELEMENT_SET_NO>999</ELEMENT_SET_NO><REV_AT_EPOCH>47428</REV_AT_EPOCH><BSTAR>.63403E-3</BSTAR><MEAN_MOTION_DOT>.2737E-4</MEAN_MOTION_DOT><MEAN_MOTION_DDOT>0</MEAN_MOTION_DDOT></tleParameters></data></segment></body></omm>

</ndm>
